[{"OBJECT_NAME":"STARLINK-2468","OBJECT_ID":"2021-027AM","EPOCH":"2026-03-09T13:50:22.286112","MEAN_MOTION":15.30203375,"ECCENTRICITY":0.0001315,"INCLINATION":53.1616,"RA_OF_ASC_NODE":165.9301,"ARG_OF_PERICENTER":85.1213,"MEAN_ANOMALY":274.9938,"EPHEMERIS_TYPE":0,"CLASSIFICATION_TYPE":"U","NORAD_CAT_ID":48127,"ELEMENT_SET_NO":999,"REV_AT_EPOCH":27249,"BSTAR":0.00021037,"MEAN_MOTION_DOT":5.877e-5,"MEAN_MOTION_DDOT":0},{"OBJECT_NAME":"JINJUSAT-1B","OBJECT_ID":"2025-052A","EPOCH":"2026-03-09T15:55:38.242848","MEAN_MOTION":15.30194857,"ECCENTRICITY":0.00055504,"INCLINATION":97.4113,"RA_OF_ASC_NODE":325.4613,"ARG_OF_PERICENTER":82.193,"MEAN_ANOMALY":277.9941,"EPHEMERIS_TYPE":0,"CLASSIFICATION_TYPE":"U","NORAD_CAT_ID":63210,"ELEMENT_SET_NO":999,"REV_AT_EPOCH":5486,"BSTAR":0.00068430401,"MEAN_MOTION_DOT":0.00019955,"MEAN_MOTION_DDOT":0}]
